{
  "type": "FeatureCollection",
  "features": [
    {
      "type": "Feature",
      "properties": {
        "norad_id": 33412,
        "name": "COSMO-SKYMED 3",
        "group": "resource",
        "lat": 51.94069880319034,
        "lon": -165.84442105314574,
        "alt_km": 546.5309531585335,
        "timestamp": "2025-12-19T18:58:41.248914+00:00",
        "meta_object_name": "COSMO-SKYMED 3",
        "meta_object_id": "2008-054A",
        "meta_epoch": "2025-12-19T07:34:40.789632",
        "meta_mean_motion": 15.05411755,
        "meta_eccentricity": 0.00167476,
        "meta_inclination": 97.847,
        "meta_ra_of_asc_node": 203.818,
        "meta_arg_of_pericenter": 149.8179,
        "meta_mean_anomaly": 210.4015,
        "meta_ephemeris_type": 0,
        "meta_classification_type": "U",
        "meta_norad_cat_id": 33412,
        "meta_element_set_no": 999,
        "meta_rev_at_epoch": 92986,
        "meta_bstar": 0.00012891721,
        "meta_mean_motion_dot": 1.789e-05,
        "meta_mean_motion_ddot": 0,
        "tle_line1": "1 33412U 08054A   25353.31574988  .00001789  00000+0  12892-3 0  9992",
        "tle_line2": "2 33412  97.8470 203.8180 0016747 149.8179 210.4015 15.05411755929867"
      },
      "geometry": {
        "type": "Point",
        "coordinates": [
          -165.84442105314574,
          51.94069880319034
        ]
      }
    },
    {
      "type": "Feature",
      "properties": {
        "norad_id": 33446,
        "name": "YAOGAN-4",
        "group": "resource",
        "lat": 1.0740558479115747,
        "lon": 103.97040587022369,
        "alt_km": 628.2856258044585,
        "timestamp": "2025-12-19T18:58:41.248925+00:00",
        "meta_object_name": "YAOGAN-4",
        "meta_object_id": "2008-061A",
        "meta_epoch": "2025-12-19T05:12:57.035520",
        "meta_mean_motion": 14.8270017,
        "meta_eccentricity": 0.00131785,
        "meta_inclination": 97.919,
        "meta_ra_of_asc_node": 283.2531,
        "meta_arg_of_pericenter": 300.5796,
        "meta_mean_anomaly": 59.4117,
        "meta_ephemeris_type": 0,
        "meta_classification_type": "U",
        "meta_norad_cat_id": 33446,
        "meta_element_set_no": 999,
        "meta_rev_at_epoch": 91899,
        "meta_bstar": 0.00012404803,
        "meta_mean_motion_dot": 9.48e-06,
        "meta_mean_motion_ddot": 0,
        "tle_line1": "1 33446U 08061A   25353.21732680  .00000948  00000+0  12405-3 0  9997",
        "tle_line2": "2 33446  97.9190 283.2531 0013178 300.5796  59.4117 14.82700170918994"
      },
      "geometry": {
        "type": "Point",
        "coordinates": [
          103.97040587022369,
          1.0740558479115747
        ]
      }
    },
    {
      "type": "Feature",
      "properties": {
        "norad_id": 33492,
        "name": "GOSAT (IBUKI)",
        "group": "resource",
        "lat": -26.858274226642397,
        "lon": -81.82797304941016,
        "alt_km": 674.9067534924015,
        "timestamp": "2025-12-19T18:58:41.248935+00:00",
        "meta_object_name": "GOSAT (IBUKI)",
        "meta_object_id": "2009-002A",
        "meta_epoch": "2025-12-19T04:56:48.129504",
        "meta_mean_motion": 14.67537344,
        "meta_eccentricity": 9.915e-05,
        "meta_inclination": 98.0771,
        "meta_ra_of_asc_node": 101.7196,
        "meta_arg_of_pericenter": 100.0781,
        "meta_mean_anomaly": 260.0536,
        "meta_ephemeris_type": 0,
        "meta_classification_type": "U",
        "meta_norad_cat_id": 33492,
        "meta_element_set_no": 999,
        "meta_rev_at_epoch": 90506,
        "meta_bstar": 0.00011356137,
        "meta_mean_motion_dot": 5.96e-06,
        "meta_mean_motion_ddot": 0,
        "tle_line1": "1 33492U 09002A   25353.20611261  .00000596  00000+0  11356-3 0  9997",
        "tle_line2": "2 33492  98.0771 101.7196 0000991 100.0781 260.0536 14.67537344905062"
      },
      "geometry": {
        "type": "Point",
        "coordinates": [
          -81.82797304941016,
          -26.858274226642397
        ]
      }
    },
    {
      "type": "Feature",
      "properties": {
        "norad_id": 35681,
        "name": "DEIMOS-1",
        "group": "resource",
        "lat": 66.15745953312064,
        "lon": -8.07392596043698,
        "alt_km": 637.5220545947395,
        "timestamp": "2025-12-19T18:58:41.248946+00:00",
        "meta_object_name": "DEIMOS-1",
        "meta_object_id": "2009-041A",
        "meta_epoch": "2025-12-19T07:04:21.552960",
        "meta_mean_motion": 14.74962922,
        "meta_eccentricity": 0.00026177,
        "meta_inclination": 97.7142,
        "meta_ra_of_asc_node": 153.5921,
        "meta_arg_of_pericenter": 69.3038,
        "meta_mean_anomaly": 290.8452,
        "meta_ephemeris_type": 0,
        "meta_classification_type": "U",
        "meta_norad_cat_id": 35681,
        "meta_element_set_no": 999,
        "meta_rev_at_epoch": 88036,
        "meta_bstar": 0.00011016049,
        "meta_mean_motion_dot": 6.93e-06,
        "meta_mean_motion_ddot": 0,
        "tle_line1": "1 35681U 09041A   25353.29469390  .00000693  00000+0  11016-3 0  9996",
        "tle_line2": "2 35681  97.7142 153.5921 0002617  69.3038 290.8452 14.74962922880367"
      },
      "geometry": {
        "type": "Point",
        "coordinates": [
          -8.07392596043698,
          66.15745953312064
        ]
      }
    },
    {
      "type": "Feature",
      "properties": {
        "norad_id": 35682,
        "name": "DUBAISAT-1",
        "group": "resource",
        "lat": 38.43106419315908,
        "lon": 117.97636080767056,
        "alt_km": 645.6795187552916,
        "timestamp": "2025-12-19T18:58:41.248957+00:00",
        "meta_object_name": "DUBAISAT-1",
        "meta_object_id": "2009-041B",
        "meta_epoch": "2025-12-19T07:24:09.937440",
        "meta_mean_motion": 14.7462099,
        "meta_eccentricity": 0.000929,
        "meta_inclination": 97.9797,
        "meta_ra_of_asc_node": 123.8917,
        "meta_arg_of_pericenter": 290.9964,
        "meta_mean_anomaly": 69.025,
        "meta_ephemeris_type": 0,
        "meta_classification_type": "U",
        "meta_norad_cat_id": 35682,
        "meta_element_set_no": 999,
        "meta_rev_at_epoch": 87858,
        "meta_bstar": 0.00014588268,
        "meta_mean_motion_dot": 9.23e-06,
        "meta_mean_motion_ddot": 0,
        "tle_line1": "1 35682U 09041B   25353.30844835  .00000923  00000+0  14588-3 0  9993",
        "tle_line2": "2 35682  97.9797 123.8917 0009290 290.9964  69.0250 14.74620990878584"
      },
      "geometry": {
        "type": "Point",
        "coordinates": [
          117.97636080767056,
          38.43106419315908
        ]
      }
    },
    {
      "type": "Feature",
      "properties": {
        "norad_id": 35931,
        "name": "OCEANSAT-2",
        "group": "resource",
        "lat": 62.97925440541078,
        "lon": -169.8548654330122,
        "alt_km": 888.7781655830095,
        "timestamp": "2025-12-19T18:58:41.248968+00:00",
        "meta_object_name": "OCEANSAT-2",
        "meta_object_id": "2009-051A",
        "meta_epoch": "2025-12-19T06:25:05.540736",
        "meta_mean_motion": 13.99623337,
        "meta_eccentricity": 0.00160513,
        "meta_inclination": 98.2217,
        "meta_ra_of_asc_node": 353.2058,
        "meta_arg_of_pericenter": 27.9523,
        "meta_mean_anomaly": 332.2503,
        "meta_ephemeris_type": 0,
        "meta_classification_type": "U",
        "meta_norad_cat_id": 35931,
        "meta_element_set_no": 999,
        "meta_rev_at_epoch": 85416,
        "meta_bstar": -6.3176686e-05,
        "meta_mean_motion_dot": -1.3e-06,
        "meta_mean_motion_ddot": 0,
        "tle_line1": "1 35931U 09051A   25353.26742524 -.00000130  00000+0 -63177-4 0  9999",
        "tle_line2": "2 35931  98.2217 353.2058 0016051  27.9523 332.2503 13.99623337854167"
      },
      "geometry": {
        "type": "Point",
        "coordinates": [
          -169.8548654330122,
          62.97925440541078
        ]
      }
    },
    {
      "type": "Feature",
      "properties": {
        "norad_id": 35946,
        "name": "WORLDVIEW-2 (WV-2)",
        "group": "resource",
        "lat": 56.05153717145756,
        "lon": -102.42042814611592,
        "alt_km": 759.4141048508009,
        "timestamp": "2025-12-19T18:58:41.248979+00:00",
        "meta_object_name": "WORLDVIEW-2 (WV-2)",
        "meta_object_id": "2009-055A",
        "meta_epoch": "2025-12-19T06:43:00.859584",
        "meta_mean_motion": 14.37726721,
        "meta_eccentricity": 0.0004968,
        "meta_inclination": 98.4782,
        "meta_ra_of_asc_node": 64.2747,
        "meta_arg_of_pericenter": 54.6555,
        "meta_mean_anomaly": 305.5095,
        "meta_ephemeris_type": 0,
        "meta_classification_type": "U",
        "meta_norad_cat_id": 35946,
        "meta_element_set_no": 999,
        "meta_rev_at_epoch": 84979,
        "meta_bstar": 5.6427092e-05,
        "meta_mean_motion_dot": 1.26e-06,
        "meta_mean_motion_ddot": 0,
        "tle_line1": "1 35946U 09055A   25353.27987106  .00000126  00000+0  56427-4 0  9990",
        "tle_line2": "2 35946  98.4782  64.2747 0004968  54.6555 305.5095 14.37726721849798"
      },
      "geometry": {
        "type": "Point",
        "coordinates": [
          -102.42042814611592,
          56.05153717145756
        ]
      }
    }
  ]
}